SES-10                  
1 42432U 17017A   26094.94739139 -.00000272  00000+0  00000+0 0  9997
2 42432   0.0190  90.0286 0002953 299.7399  77.6474  1.00271137 33024
CHINASAT 16 (SJ-13)     
1 42662U 17018A   26095.26770332 -.00000351  00000+0  00000+0 0  9997
2 42662   0.0865  84.9215 0004082 170.2568 145.2410  1.00269566 33012
KOREASAT 7              
1 42691U 17023A   26094.98353154 -.00000361  00000+0  00000+0 0  9993
2 42691   0.0182  56.2643 0001067 317.4910 289.5079  1.00271590 32639
SGDC                    
1 42692U 17023B   26094.67187923 -.00000249  00000+0  00000+0 0  9994
2 42692   0.0463  72.2068 0002958 319.7707 328.0332  1.00272559 32671
GSAT-9                  
1 42695U 17024A   26095.26155980 -.00000285  00000+0  00000+0 0  9992
2 42695   0.0395   6.3728 0002929   3.3162  15.3184  1.00274954 32568
INMARSAT 5-F4           
1 42698U 17025A   26095.18571928  .00000000  00000+0  00000+0 0  9995
2 42698   0.0168 206.6784 0000232 213.7969 256.3980  1.00269581 32542
SES-15                  
1 42709U 17026A   26095.24280647  .00000061  00000+0  00000+0 0  9998
2 42709   0.0309 319.9281 0000760  63.9952 127.8662  1.00270997  6706
QZS-2 (MICHIBIKI-2)     
1 42738U 17028A   26095.27195000 -.00000203  00000+0  00000+0 0  9992
2 42738  39.5436 244.2157 0742094 270.6147 276.4746  1.00253447  6899
VIASAT-2                
1 42740U 17029A   26095.17852001 -.00000264  00000+0  00000+0 0  9993
2 42740   0.0201 258.3100 0000522 109.1909 180.3437  1.00276038 32478
EUTELSAT 172B           
1 42741U 17029B   26094.99766853 -.00000005  00000+0  00000+0 0  9995
2 42741   0.0188 165.5695 0000204 195.0896   3.8088  1.00269545 33003
GSAT-19                 
1 42747U 17031A   26095.25530993  .00000127  00000+0  00000+0 0  9992
2 42747   0.0956  84.8564 0005493 322.5613 285.8822  1.00271291 32412
ECHOSTAR 21             
1 42749U 17032A   26095.22822667  .00000066  00000+0  00000+0 0  9996
2 42749   1.7843 350.9055 0002512  21.8742 273.1720  1.00274239 32366
BULGARIASAT-1           
1 42801U 17038A   26095.22822667  .00000013  00000+0  00000+0 0  9993
2 42801   0.0552  79.8892 0003407 311.1246 246.5740  1.00274567 32111
HELLAS-SAT 3            
1 42814U 17040A   26095.25357660  .00000154  00000+0  00000+0 0  9995
2 42814   0.0633  35.3814 0005288 345.9043 302.5541  1.00270393 32075
GSAT-17                 
1 42815U 17040B   26095.26155980 -.00000257  00000+0  00000+0 0  9993
2 42815   0.0681  75.3876 0004030 233.5638  72.2639  1.00273352 32052
INTELSAT 35E (IS-35E)   
1 42818U 17041A   26095.18169985 -.00000237  00000+0  00000+0 0  9996
2 42818   0.0174 214.7221 0002131 161.8428 207.8241  1.00272866 32082
COSMOS 2520             
1 42907U 17046A   26095.18346594  .00000138  00000+0  00000+0 0  9992
2 42907   0.0238 124.0413 0000188  10.3480 170.1645  1.00270285 31660
