[{"OBJECT_NAME":"SES-10","OBJECT_ID":"2017-017A","EPOCH":"2026-04-04T22:44:14.616096","MEAN_MOTION":1.00271137,"ECCENTRICITY":0.00029539,"INCLINATION":0.019,"RA_OF_ASC_NODE":90.0286,"ARG_OF_PERICENTER":299.7399,"MEAN_ANOMALY":77.6474,"EPHEMERIS_TYPE":0,"CLASSIFICATION_TYPE":"U","NORAD_CAT_ID":42432,"ELEMENT_SET_NO":999,"REV_AT_EPOCH":3302,"BSTAR":0,"MEAN_MOTION_DOT":-2.72e-6,"MEAN_MOTION_DDOT":0},{"OBJECT_NAME":"CHINASAT 16 (SJ-13)","OBJECT_ID":"2017-018A","EPOCH":"2026-04-05T06:25:29.566848","MEAN_MOTION":1.00269566,"ECCENTRICITY":0.00040827,"INCLINATION":0.0865,"RA_OF_ASC_NODE":84.9215,"ARG_OF_PERICENTER":170.2568,"MEAN_ANOMALY":145.241,"EPHEMERIS_TYPE":0,"CLASSIFICATION_TYPE":"U","NORAD_CAT_ID":42662,"ELEMENT_SET_NO":999,"REV_AT_EPOCH":3301,"BSTAR":0,"MEAN_MOTION_DOT":-3.51e-6,"MEAN_MOTION_DDOT":0},{"OBJECT_NAME":"KOREASAT 7","OBJECT_ID":"2017-023A","EPOCH":"2026-04-04T23:36:17.125056","MEAN_MOTION":1.0027159,"ECCENTRICITY":0.00010675,"INCLINATION":0.0182,"RA_OF_ASC_NODE":56.2643,"ARG_OF_PERICENTER":317.491,"MEAN_ANOMALY":289.5079,"EPHEMERIS_TYPE":0,"CLASSIFICATION_TYPE":"U","NORAD_CAT_ID":42691,"ELEMENT_SET_NO":999,"REV_AT_EPOCH":3263,"BSTAR":0,"MEAN_MOTION_DOT":-3.61e-6,"MEAN_MOTION_DDOT":0},{"OBJECT_NAME":"SGDC","OBJECT_ID":"2017-023B","EPOCH":"2026-04-04T16:07:30.365472","MEAN_MOTION":1.00272559,"ECCENTRICITY":0.00029589,"INCLINATION":0.0463,"RA_OF_ASC_NODE":72.2068,"ARG_OF_PERICENTER":319.7707,"MEAN_ANOMALY":328.0332,"EPHEMERIS_TYPE":0,"CLASSIFICATION_TYPE":"U","NORAD_CAT_ID":42692,"ELEMENT_SET_NO":999,"REV_AT_EPOCH":3267,"BSTAR":0,"MEAN_MOTION_DOT":-2.49e-6,"MEAN_MOTION_DDOT":0},{"OBJECT_NAME":"GSAT-9","OBJECT_ID":"2017-024A","EPOCH":"2026-04-05T06:16:38.766720","MEAN_MOTION":1.00274954,"ECCENTRICITY":0.00029293,"INCLINATION":0.0395,"RA_OF_ASC_NODE":6.3728,"ARG_OF_PERICENTER":3.3162,"MEAN_ANOMALY":15.3184,"EPHEMERIS_TYPE":0,"CLASSIFICATION_TYPE":"U","NORAD_CAT_ID":42695,"ELEMENT_SET_NO":999,"REV_AT_EPOCH":3256,"BSTAR":0,"MEAN_MOTION_DOT":-2.85e-6,"MEAN_MOTION_DDOT":0},{"OBJECT_NAME":"INMARSAT 5-F4","OBJECT_ID":"2017-025A","EPOCH":"2026-04-05T04:27:26.145792","MEAN_MOTION":1.00269581,"ECCENTRICITY":2.329e-5,"INCLINATION":0.0168,"RA_OF_ASC_NODE":206.6784,"ARG_OF_PERICENTER":213.7969,"MEAN_ANOMALY":256.398,"EPHEMERIS_TYPE":0,"CLASSIFICATION_TYPE":"U","NORAD_CAT_ID":42698,"ELEMENT_SET_NO":999,"REV_AT_EPOCH":3254,"BSTAR":0,"MEAN_MOTION_DOT":0,"MEAN_MOTION_DDOT":0},{"OBJECT_NAME":"SES-15","OBJECT_ID":"2017-026A","EPOCH":"2026-04-05T05:49:38.479008","MEAN_MOTION":1.00270997,"ECCENTRICITY":7.603e-5,"INCLINATION":0.0309,"RA_OF_ASC_NODE":319.9281,"ARG_OF_PERICENTER":63.9952,"MEAN_ANOMALY":127.8662,"EPHEMERIS_TYPE":0,"CLASSIFICATION_TYPE":"U","NORAD_CAT_ID":42709,"ELEMENT_SET_NO":999,"REV_AT_EPOCH":670,"BSTAR":0,"MEAN_MOTION_DOT":6.1e-7,"MEAN_MOTION_DDOT":0},{"OBJECT_NAME":"QZS-2 (MICHIBIKI-2)","OBJECT_ID":"2017-028A","EPOCH":"2026-04-05T06:31:36.480000","MEAN_MOTION":1.00253447,"ECCENTRICITY":0.07420946,"INCLINATION":39.5436,"RA_OF_ASC_NODE":244.2157,"ARG_OF_PERICENTER":270.6147,"MEAN_ANOMALY":276.4746,"EPHEMERIS_TYPE":0,"CLASSIFICATION_TYPE":"U","NORAD_CAT_ID":42738,"ELEMENT_SET_NO":999,"REV_AT_EPOCH":689,"BSTAR":0,"MEAN_MOTION_DOT":-2.03e-6,"MEAN_MOTION_DDOT":0},{"OBJECT_NAME":"VIASAT-2","OBJECT_ID":"2017-029A","EPOCH":"2026-04-05T04:17:04.128864","MEAN_MOTION":1.00276038,"ECCENTRICITY":5.225e-5,"INCLINATION":0.0201,"RA_OF_ASC_NODE":258.31,"ARG_OF_PERICENTER":109.1909,"MEAN_ANOMALY":180.3437,"EPHEMERIS_TYPE":0,"CLASSIFICATION_TYPE":"U","NORAD_CAT_ID":42740,"ELEMENT_SET_NO":999,"REV_AT_EPOCH":3247,"BSTAR":0,"MEAN_MOTION_DOT":-2.64e-6,"MEAN_MOTION_DDOT":0},{"OBJECT_NAME":"EUTELSAT 172B","OBJECT_ID":"2017-029B","EPOCH":"2026-04-04T23:56:38.560992","MEAN_MOTION":1.00269545,"ECCENTRICITY":2.046e-5,"INCLINATION":0.0188,"RA_OF_ASC_NODE":165.5695,"ARG_OF_PERICENTER":195.0896,"MEAN_ANOMALY":3.8088,"EPHEMERIS_TYPE":0,"CLASSIFICATION_TYPE":"U","NORAD_CAT_ID":42741,"ELEMENT_SET_NO":999,"REV_AT_EPOCH":3300,"BSTAR":0,"MEAN_MOTION_DOT":-5.0e-8,"MEAN_MOTION_DDOT":0},{"OBJECT_NAME":"GSAT-19","OBJECT_ID":"2017-031A","EPOCH":"2026-04-05T06:07:38.777952","MEAN_MOTION":1.00271291,"ECCENTRICITY":0.00054931,"INCLINATION":0.0956,"RA_OF_ASC_NODE":84.8564,"ARG_OF_PERICENTER":322.5613,"MEAN_ANOMALY":285.8822,"EPHEMERIS_TYPE":0,"CLASSIFICATION_TYPE":"U","NORAD_CAT_ID":42747,"ELEMENT_SET_NO":999,"REV_AT_EPOCH":3241,"BSTAR":0,"MEAN_MOTION_DOT":1.27e-6,"MEAN_MOTION_DDOT":0},{"OBJECT_NAME":"ECHOSTAR 21","OBJECT_ID":"2017-032A","EPOCH":"2026-04-05T05:28:38.784288","MEAN_MOTION":1.00274239,"ECCENTRICITY":0.00025124,"INCLINATION":1.7843,"RA_OF_ASC_NODE":350.9055,"ARG_OF_PERICENTER":21.8742,"MEAN_ANOMALY":273.172,"EPHEMERIS_TYPE":0,"CLASSIFICATION_TYPE":"U","NORAD_CAT_ID":42749,"ELEMENT_SET_NO":999,"REV_AT_EPOCH":3236,"BSTAR":0,"MEAN_MOTION_DOT":6.6e-7,"MEAN_MOTION_DDOT":0},{"OBJECT_NAME":"BULGARIASAT-1","OBJECT_ID":"2017-038A","EPOCH":"2026-04-05T05:28:38.784288","MEAN_MOTION":1.00274567,"ECCENTRICITY":0.00034078,"INCLINATION":0.0552,"RA_OF_ASC_NODE":79.8892,"ARG_OF_PERICENTER":311.1246,"MEAN_ANOMALY":246.574,"EPHEMERIS_TYPE":0,"CLASSIFICATION_TYPE":"U","NORAD_CAT_ID":42801,"ELEMENT_SET_NO":999,"REV_AT_EPOCH":3211,"BSTAR":0,"MEAN_MOTION_DOT":1.3e-7,"MEAN_MOTION_DDOT":0},{"OBJECT_NAME":"HELLAS-SAT 3","OBJECT_ID":"2017-040A","EPOCH":"2026-04-05T06:05:09.018240","MEAN_MOTION":1.00270393,"ECCENTRICITY":0.00052886,"INCLINATION":0.0633,"RA_OF_ASC_NODE":35.3814,"ARG_OF_PERICENTER":345.9043,"MEAN_ANOMALY":302.5541,"EPHEMERIS_TYPE":0,"CLASSIFICATION_TYPE":"U","NORAD_CAT_ID":42814,"ELEMENT_SET_NO":999,"REV_AT_EPOCH":3207,"BSTAR":0,"MEAN_MOTION_DOT":1.54e-6,"MEAN_MOTION_DDOT":0},{"OBJECT_NAME":"GSAT-17","OBJECT_ID":"2017-040B","EPOCH":"2026-04-05T06:16:38.766720","MEAN_MOTION":1.00273352,"ECCENTRICITY":0.00040308,"INCLINATION":0.0681,"RA_OF_ASC_NODE":75.3876,"ARG_OF_PERICENTER":233.5638,"MEAN_ANOMALY":72.2639,"EPHEMERIS_TYPE":0,"CLASSIFICATION_TYPE":"U","NORAD_CAT_ID":42815,"ELEMENT_SET_NO":999,"REV_AT_EPOCH":3205,"BSTAR":0,"MEAN_MOTION_DOT":-2.57e-6,"MEAN_MOTION_DDOT":0},{"OBJECT_NAME":"INTELSAT 35E (IS-35E)","OBJECT_ID":"2017-041A","EPOCH":"2026-04-05T04:21:38.867040","MEAN_MOTION":1.00272866,"ECCENTRICITY":0.00021315,"INCLINATION":0.0174,"RA_OF_ASC_NODE":214.7221,"ARG_OF_PERICENTER":161.8428,"MEAN_ANOMALY":207.8241,"EPHEMERIS_TYPE":0,"CLASSIFICATION_TYPE":"U","NORAD_CAT_ID":42818,"ELEMENT_SET_NO":999,"REV_AT_EPOCH":3208,"BSTAR":0,"MEAN_MOTION_DOT":-2.37e-6,"MEAN_MOTION_DDOT":0},{"OBJECT_NAME":"COSMOS 2520","OBJECT_ID":"2017-046A","EPOCH":"2026-04-05T04:24:11.457216","MEAN_MOTION":1.00270285,"ECCENTRICITY":1.882e-5,"INCLINATION":0.0238,"RA_OF_ASC_NODE":124.0413,"ARG_OF_PERICENTER":10.348,"MEAN_ANOMALY":170.1645,"EPHEMERIS_TYPE":0,"CLASSIFICATION_TYPE":"U","NORAD_CAT_ID":42907,"ELEMENT_SET_NO":999,"REV_AT_EPOCH":3166,"BSTAR":0,"MEAN_MOTION_DOT":1.38e-6,"MEAN_MOTION_DDOT":0}]
